{
  "type": "FeatureCollection",
  "features": [
    {
      "type": "Feature",
      "properties": {
        "norad_id": 33901,
        "name": "COSMOS 2251 DEB",
        "group": "cosmos-2251-debris",
        "lat": -73.46499562291773,
        "lon": -70.71059603779851,
        "alt_km": 527.9125013264038,
        "timestamp": "2025-12-21T14:40:48.311666+00:00",
        "meta_object_name": "COSMOS 2251 DEB",
        "meta_object_id": "1993-036DE",
        "meta_epoch": "2025-12-21T04:00:40.938336",
        "meta_mean_motion": 15.1675058,
        "meta_eccentricity": 0.00302295,
        "meta_inclination": 73.7747,
        "meta_ra_of_asc_node": 31.4468,
        "meta_arg_of_pericenter": 162.6513,
        "meta_mean_anomaly": 197.5722,
        "meta_ephemeris_type": 0,
        "meta_classification_type": "U",
        "meta_norad_cat_id": 33901,
        "meta_element_set_no": 999,
        "meta_rev_at_epoch": 89641,
        "meta_bstar": 0.001718466,
        "meta_mean_motion_dot": 0.0003424,
        "meta_mean_motion_ddot": 0,
        "tle_line1": "1 33901U 93036DE  25355.16714049  .00034240  00000+0  17185-2 0  9995",
        "tle_line2": "2 33901  73.7747  31.4468 0030229 162.6513 197.5722 15.16750580896418"
      },
      "geometry": {
        "type": "Point",
        "coordinates": [
          -70.71059603779851,
          -73.46499562291773
        ]
      }
    },
    {
      "type": "Feature",
      "properties": {
        "norad_id": 33905,
        "name": "COSMOS 2251 DEB",
        "group": "cosmos-2251-debris",
        "lat": -71.65135388538904,
        "lon": -120.42294833062911,
        "alt_km": 781.1601596388837,
        "timestamp": "2025-12-21T14:40:48.311676+00:00",
        "meta_object_name": "COSMOS 2251 DEB",
        "meta_object_id": "1993-036DJ",
        "meta_epoch": "2025-12-21T03:24:17.254368",
        "meta_mean_motion": 14.35411783,
        "meta_eccentricity": 0.00583394,
        "meta_inclination": 73.8865,
        "meta_ra_of_asc_node": 301.092,
        "meta_arg_of_pericenter": 188.7998,
        "meta_mean_anomaly": 182.6892,
        "meta_ephemeris_type": 0,
        "meta_classification_type": "U",
        "meta_norad_cat_id": 33905,
        "meta_element_set_no": 999,
        "meta_rev_at_epoch": 87808,
        "meta_bstar": 0.00039441273,
        "meta_mean_motion_dot": 1.128e-05,
        "meta_mean_motion_ddot": 0,
        "tle_line1": "1 33905U 93036DJ  25355.14186637  .00001128  00000+0  39441-3 0  9992",
        "tle_line2": "2 33905  73.8865 301.0920 0058339 188.7998 182.6892 14.35411783878086"
      },
      "geometry": {
        "type": "Point",
        "coordinates": [
          -120.42294833062911,
          -71.65135388538904
        ]
      }
    },
    {
      "type": "Feature",
      "properties": {
        "norad_id": 33906,
        "name": "COSMOS 2251 DEB",
        "group": "cosmos-2251-debris",
        "lat": 40.489112249802886,
        "lon": 110.46272618760361,
        "alt_km": 723.7917571428643,
        "timestamp": "2025-12-21T14:40:48.311687+00:00",
        "meta_object_name": "COSMOS 2251 DEB",
        "meta_object_id": "1993-036DK",
        "meta_epoch": "2025-12-21T06:08:15.080640",
        "meta_mean_motion": 14.57220727,
        "meta_eccentricity": 0.00368921,
        "meta_inclination": 74.0307,
        "meta_ra_of_asc_node": 305.2897,
        "meta_arg_of_pericenter": 333.6462,
        "meta_mean_anomaly": 97.1781,
        "meta_ephemeris_type": 0,
        "meta_classification_type": "U",
        "meta_norad_cat_id": 33906,
        "meta_element_set_no": 999,
        "meta_rev_at_epoch": 88132,
        "meta_bstar": 0.0014137629,
        "meta_mean_motion_dot": 6.422e-05,
        "meta_mean_motion_ddot": 0,
        "tle_line1": "1 33906U 93036DK  25355.25573010  .00006422  00000+0  14138-2 0  9997",
        "tle_line2": "2 33906  74.0307 305.2897 0036892 333.6462  97.1781 14.57220727881325"
      },
      "geometry": {
        "type": "Point",
        "coordinates": [
          110.46272618760361,
          40.489112249802886
        ]
      }
    },
    {
      "type": "Feature",
      "properties": {
        "norad_id": 33907,
        "name": "COSMOS 2251 DEB",
        "group": "cosmos-2251-debris",
        "lat": -20.09419444746743,
        "lon": 11.540163993222496,
        "alt_km": 795.4627887217421,
        "timestamp": "2025-12-21T14:40:48.311698+00:00",
        "meta_object_name": "COSMOS 2251 DEB",
        "meta_object_id": "1993-036DL",
        "meta_epoch": "2025-12-20T08:39:03.581568",
        "meta_mean_motion": 14.30568878,
        "meta_eccentricity": 0.01118938,
        "meta_inclination": 74.0693,
        "meta_ra_of_asc_node": 19.8097,
        "meta_arg_of_pericenter": 73.0053,
        "meta_mean_anomaly": 306.2172,
        "meta_ephemeris_type": 0,
        "meta_classification_type": "U",
        "meta_norad_cat_id": 33907,
        "meta_element_set_no": 999,
        "meta_rev_at_epoch": 86689,
        "meta_bstar": 0.0011890274,
        "meta_mean_motion_dot": 3.297e-05,
        "meta_mean_motion_ddot": 0,
        "tle_line1": "1 33907U 93036DL  25354.36045812  .00003297  00000+0  11890-2 0  9992",
        "tle_line2": "2 33907  74.0693  19.8097 0111893  73.0053 306.2172 14.30568878866896"
      },
      "geometry": {
        "type": "Point",
        "coordinates": [
          11.540163993222496,
          -20.09419444746743
        ]
      }
    },
    {
      "type": "Feature",
      "properties": {
        "norad_id": 33908,
        "name": "COSMOS 2251 DEB",
        "group": "cosmos-2251-debris",
        "lat": -7.012734420807127,
        "lon": -172.02196755117288,
        "alt_km": 995.4202866957676,
        "timestamp": "2025-12-21T14:40:48.311708+00:00",
        "meta_object_name": "COSMOS 2251 DEB",
        "meta_object_id": "1993-036DM",
        "meta_epoch": "2025-12-20T19:57:01.536192",
        "meta_mean_motion": 14.07396598,
        "meta_eccentricity": 0.02225081,
        "meta_inclination": 73.8363,
        "meta_ra_of_asc_node": 191.407,
        "meta_arg_of_pericenter": 213.4269,
        "meta_mean_anomaly": 145.2659,
        "meta_ephemeris_type": 0,
        "meta_classification_type": "U",
        "meta_norad_cat_id": 33908,
        "meta_element_set_no": 999,
        "meta_rev_at_epoch": 85587,
        "meta_bstar": 0.0013495239,
        "meta_mean_motion_dot": 2.819e-05,
        "meta_mean_motion_ddot": 0,
        "tle_line1": "1 33908U 93036DM  25354.83126778  .00002819  00000+0  13495-2 0  9998",
        "tle_line2": "2 33908  73.8363 191.4070 0222508 213.4269 145.2659 14.07396598855870"
      },
      "geometry": {
        "type": "Point",
        "coordinates": [
          -172.02196755117288,
          -7.012734420807127
        ]
      }
    },
    {
      "type": "Feature",
      "properties": {
        "norad_id": 33911,
        "name": "COSMOS 2251 DEB",
        "group": "cosmos-2251-debris",
        "lat": 59.25966584072047,
        "lon": -64.08540511415723,
        "alt_km": 631.080221139584,
        "timestamp": "2025-12-21T14:40:48.311718+00:00",
        "meta_object_name": "COSMOS 2251 DEB",
        "meta_object_id": "1993-036DQ",
        "meta_epoch": "2025-12-21T04:38:28.888224",
        "meta_mean_motion": 14.75044553,
        "meta_eccentricity": 0.00140429,
        "meta_inclination": 74.0901,
        "meta_ra_of_asc_node": 145.3897,
        "meta_arg_of_pericenter": 79.9548,
        "meta_mean_anomaly": 336.3353,
        "meta_ephemeris_type": 0,
        "meta_classification_type": "U",
        "meta_norad_cat_id": 33911,
        "meta_element_set_no": 999,
        "meta_rev_at_epoch": 88769,
        "meta_bstar": 0.0015037897,
        "meta_mean_motion_dot": 0.00010127,
        "meta_mean_motion_ddot": 0,
        "tle_line1": "1 33911U 93036DQ  25355.19338991  .00010127  00000+0  15038-2 0  9990",
        "tle_line2": "2 33911  74.0901 145.3897 0014042  79.9548 336.3353 14.75044553887692"
      },
      "geometry": {
        "type": "Point",
        "coordinates": [
          -64.08540511415723,
          59.25966584072047
        ]
      }
    },
    {
      "type": "Feature",
      "properties": {
        "norad_id": 33912,
        "name": "COSMOS 2251 DEB",
        "group": "cosmos-2251-debris",
        "lat": -11.388077980876675,
        "lon": 169.70604190542747,
        "alt_km": 724.1937812939796,
        "timestamp": "2025-12-21T14:40:48.311729+00:00",
        "meta_object_name": "COSMOS 2251 DEB",
        "meta_object_id": "1993-036DR",
        "meta_epoch": "2025-12-21T05:20:40.080768",
        "meta_mean_motion": 14.51938437,
        "meta_eccentricity": 0.00113331,
        "meta_inclination": 74.0325,
        "meta_ra_of_asc_node": 173.7447,
        "meta_arg_of_pericenter": 252.6859,
        "meta_mean_anomaly": 223.0654,
        "meta_ephemeris_type": 0,
        "meta_classification_type": "U",
        "meta_norad_cat_id": 33912,
        "meta_element_set_no": 999,
        "meta_rev_at_epoch": 88556,
        "meta_bstar": 0.00057808379,
        "meta_mean_motion_dot": 2.307e-05,
        "meta_mean_motion_ddot": 0,
        "tle_line1": "1 33912U 93036DR  25355.22268612  .00002307  00000+0  57808-3 0  9990",
        "tle_line2": "2 33912  74.0325 173.7447 0011333 252.6859 223.0654 14.51938437885561"
      },
      "geometry": {
        "type": "Point",
        "coordinates": [
          169.70604190542747,
          -11.388077980876675
        ]
      }
    }
  ]
}